{"type": "FeatureCollection", "features": [ {"type": "Feature", "properties": {"norad_id": 34570, "name": "COSMOS 2251 DEB", "group": "cosmos-2251-debris", "lat": -73.71957446809023, "lon": 118.0560897563338, "alt_km": 1035.9518362576428, "timestamp": "2025-12-12T22:42:12.940254+00:00", "meta": {"OBJECT_NAME": "COSMOS 2251 DEB", "OBJECT_ID": "1993-036VG", "EPOCH": "2025-12-10T10:15:47.270880", "MEAN_MOTION": 13.99813899, "ECCENTRICITY": 0.01902081, "INCLINATION": 73.9575, "RA_OF_ASC_NODE": 222.3032, "ARG_OF_PERICENTER": 105.3156, "MEAN_ANOMALY": 75.4929, "EPHEMERIS_TYPE": 0, "CLASSIFICATION_TYPE": "U", "NORAD_CAT_ID": 34570, "ELEMENT_SET_NO": 999, "REV_AT_EPOCH": 85568, "BSTAR": 0.00064940557, "MEAN_MOTION_DOT": 1.09e-05, "MEAN_MOTION_DDOT": 0}, "tle": {"line1": "1 34570U 93036VG  25344.42763045  .00001090  00000+0  64941-3 0  9995", "line2": "2 34570  73.9575 222.3032 0190208 105.3156  75.4929 13.99813899855680"}}, "geometry": {"type": "Point", "coordinates": [118.0560897563338, -73.71957446809023]}}, {"type": "Feature", "properties": {"norad_id": 34571, "name": "COSMOS 2251 DEB", "group": "cosmos-2251-debris", "lat": 26.1007997742638, "lon": -6.012349052768242, "alt_km": 707.5401264618549, "timestamp": "2025-12-12T22:42:12.940264+00:00", "meta": {"OBJECT_NAME": "COSMOS 2251 DEB", "OBJECT_ID": "1993-036VH", "EPOCH": "2025-12-09T06:09:38.106720", "MEAN_MOTION": 14.48721172, "ECCENTRICITY": 0.0066557, "INCLINATION": 74.0386, "RA_OF_ASC_NODE": 188.9585, "ARG_OF_PERICENTER": 224.7562, "MEAN_ANOMALY": 134.8218, "EPHEMERIS_TYPE": 0, "CLASSIFICATION_TYPE": "U", "NORAD_CAT_ID": 34571, "ELEMENT_SET_NO": 999, "REV_AT_EPOCH": 87243, "BSTAR": 0.0025604, "MEAN_MOTION_DOT": 9.914e-05, "MEAN_MOTION_DDOT": 0}, "tle": {"line1": "1 34571U 93036VH  25343.25669105  .00009914  00000+0  25604-2 0  9993", "line2": "2 34571  74.0386 188.9585 0066557 224.7562 134.8218 14.48721172872439"}}, "geometry": {"type": "Point", "coordinates": [-6.012349052768242, 26.1007997742638]}}, {"type": "Feature", "properties": {"norad_id": 34572, "name": "COSMOS 2251 DEB", "group": "cosmos-2251-debris", "lat": 15.93072837570177, "lon": 119.81359586677702, "alt_km": 770.1852186750066, "timestamp": "2025-12-12T22:42:12.940274+00:00", "meta": {"OBJECT_NAME": "COSMOS 2251 DEB", "OBJECT_ID": "1993-036VJ", "EPOCH": "2025-12-12T01:39:23.053248", "MEAN_MOTION": 14.49993335, "ECCENTRICITY": 0.00629257, "INCLINATION": 74.0101, "RA_OF_ASC_NODE": 116.7677, "ARG_OF_PERICENTER": 190.7051, "MEAN_ANOMALY": 290.1646, "EPHEMERIS_TYPE": 0, "CLASSIFICATION_TYPE": "U", "NORAD_CAT_ID": 34572, "ELEMENT_SET_NO": 999, "REV_AT_EPOCH": 87368, "BSTAR": 0.0042166825, "MEAN_MOTION_DOT": 0.00016761, "MEAN_MOTION_DDOT": 0}, "tle": {"line1": "1 34572U 93036VJ  25346.06901682  .00016761  00000+0  42167-2 0  9996", "line2": "2 34572  74.0101 116.7677 0062925 190.7051 290.1646 14.49993335873688"}}, "geometry": {"type": "Point", "coordinates": [119.81359586677702, 15.93072837570177]}}, {"type": "Feature", "properties": {"norad_id": 34574, "name": "COSMOS 2251 DEB", "group": "cosmos-2251-debris", "lat": -71.77999618200585, "lon": -17.462475446387806, "alt_km": 704.4432748523304, "timestamp": "2025-12-12T22:42:12.940283+00:00", "meta": {"OBJECT_NAME": "COSMOS 2251 DEB", "OBJECT_ID": "1993-036VL", "EPOCH": "2025-12-11T15:06:06.289344", "MEAN_MOTION": 14.70586286, "ECCENTRICITY": 0.00669128, "INCLINATION": 74.069, "RA_OF_ASC_NODE": 45.2835, "ARG_OF_PERICENTER": 66.6718, "MEAN_ANOMALY": 84.5906, "EPHEMERIS_TYPE": 0, "CLASSIFICATION_TYPE": "U", "NORAD_CAT_ID": 34574, "ELEMENT_SET_NO": 999, "REV_AT_EPOCH": 88762, "BSTAR": 0.0014231911, "MEAN_MOTION_DOT": 8.935e-05, "MEAN_MOTION_DDOT": 0}, "tle": {"line1": "1 34574U 93036VL  25345.62923946  .00008935  00000+0  14232-2 0  9992", "line2": "2 34574  74.0690  45.2835 0066912  66.6718  84.5906 14.70586286887626"}}, "geometry": {"type": "Point", "coordinates": [-17.462475446387806, -71.77999618200585]}}, {"type": "Feature", "properties": {"norad_id": 34576, "name": "COSMOS 2251 DEB", "group": "cosmos-2251-debris", "lat": -54.420004761373036, "lon": -18.603499294211215, "alt_km": 709.9445178409069, "timestamp": "2025-12-12T22:42:12.940293+00:00", "meta": {"OBJECT_NAME": "COSMOS 2251 DEB", "OBJECT_ID": "1993-036VN", "EPOCH": "2025-12-12T04:16:47.347392", "MEAN_MOTION": 14.55418481, "ECCENTRICITY": 0.00081354, "INCLINATION": 74.0337, "RA_OF_ASC_NODE": 139.2601, "ARG_OF_PERICENTER": 274.782, "MEAN_ANOMALY": 262.4694, "EPHEMERIS_TYPE": 0, "CLASSIFICATION_TYPE": "U", "NORAD_CAT_ID": 34576, "ELEMENT_SET_NO": 999, "REV_AT_EPOCH": 88458, "BSTAR": 0.0014321724, "MEAN_MOTION_DOT": 6.203e-05, "MEAN_MOTION_DDOT": 0}, "tle": {"line1": "1 34576U 93036VN  25346.17832578  .00006203  00000+0  14322-2 0  9991", "line2": "2 34576  74.0337 139.2601 0008135 274.7820 262.4694 14.55418481884587"}}, "geometry": {"type": "Point", "coordinates": [-18.603499294211215, -54.420004761373036]}}, {"type": "Feature", "properties": {"norad_id": 34579, "name": "COSMOS 2251 DEB", "group": "cosmos-2251-debris", "lat": 73.97445837052406, "lon": -51.933373663362794, "alt_km": 751.5678334427466, "timestamp": "2025-12-12T22:42:12.940303+00:00", "meta": {"OBJECT_NAME": "COSMOS 2251 DEB", "OBJECT_ID": "1993-036VR", "EPOCH": "2025-12-12T03:03:52.835904", "MEAN_MOTION": 14.45305922, "ECCENTRICITY": 0.00275625, "INCLINATION": 74.0529, "RA_OF_ASC_NODE": 225.0324, "ARG_OF_PERICENTER": 293.7979, "MEAN_ANOMALY": 218.6648, "EPHEMERIS_TYPE": 0, "CLASSIFICATION_TYPE": "U", "NORAD_CAT_ID": 34579, "ELEMENT_SET_NO": 999, "REV_AT_EPOCH": 88165, "BSTAR": 0.00065333354, "MEAN_MOTION_DOT": 2.278e-05, "MEAN_MOTION_DDOT": 0}, "tle": {"line1": "1 34579U 93036VR  25346.12769486  .00002278  00000+0  65333-3 0  9993", "line2": "2 34579  74.0529 225.0324 0027562 293.7979 218.6648 14.45305922881651"}}, "geometry": {"type": "Point", "coordinates": [-51.933373663362794, 73.97445837052406]}}, {"type": "Feature", "properties": {"norad_id": 34582, "name": "COSMOS 2251 DEB", "group": "cosmos-2251-debris", "lat": 23.97507506767452, "lon": -80.68481349548284, "alt_km": 712.5625162710421, "timestamp": "2025-12-12T22:42:12.940314+00:00", "meta": {"OBJECT_NAME": "COSMOS 2251 DEB", "OBJECT_ID": "1993-036VU", "EPOCH": "2025-12-12T05:57:15.247296", "MEAN_MOTION": 14.4331996, "ECCENTRICITY": 0.00478316, "INCLINATION": 74.0198, "RA_OF_ASC_NODE": 273.2911, "ARG_OF_PERICENTER": 23.5204, "MEAN_ANOMALY": 336.8125, "EPHEMERIS_TYPE": 0, "CLASSIFICATION_TYPE": "U", "NORAD_CAT_ID": 34582, "ELEMENT_SET_NO": 999, "REV_AT_EPOCH": 87940, "BSTAR": 0.0012060937, "MEAN_MOTION_DOT": 4.097e-05, "MEAN_MOTION_DDOT": 0}, "tle": {"line1": "1 34582U 93036VU  25346.24809314  .00004097  00000+0  12061-2 0  9995", "line2": "2 34582  74.0198 273.2911 0047831  23.5204 336.8125 14.43319960879403"}}, "geometry": {"type": "Point", "coordinates": [-80.68481349548284, 23.97507506767452]}}, {"type": "Feature", "properties": {"norad_id": 34588, "name": "COSMOS 2251 DEB", "group": "cosmos-2251-debris", "lat": 70.77764016108276, "lon": -36.98572080570017, "alt_km": 751.2097194344551, "timestamp": "2025-12-12T22:42:12.940323+00:00", "meta": {"OBJECT_NAME": "COSMOS 2251 DEB", "OBJECT_ID": "1993-036WA", "EPOCH": "2025-12-12T06:26:20.897088", "MEAN_MOTION": 14.42020158, "ECCENTRICITY": 0.00191858, "INCLINATION": 74.0436, "RA_OF_ASC_NODE": 269.1287, "ARG_OF_PERICENTER": 321.7315, "MEAN_ANOMALY": 200.6171, "EPHEMERIS_TYPE": 0, "CLASSIFICATION_TYPE": "U", "NORAD_CAT_ID": 34588, "ELEMENT_SET_NO": 999, "REV_AT_EPOCH": 87943, "BSTAR": 0.00078296045, "MEAN_MOTION_DOT": 2.549e-05, "MEAN_MOTION_DDOT": 0}, "tle": {"line1": "1 34588U 93036WA  25346.26829742  .00002549  00000+0  78296-3 0  9993", "line2": "2 34588  74.0436 269.1287 0019185 321.7315 200.6171 14.42020158879430"}}, "geometry": {"type": "Point", "coordinates": [-36.98572080570017, 70.77764016108276]}}, {"type": "Feature", "properties": {"norad_id": 34589, "name": "COSMOS 2251 DEB", "group": "cosmos-2251-debris", "lat": -54.95415321254163, "lon": -100.04596149018269, "alt_km": 1039.5572975962186, "timestamp": "2025-12-12T22:42:12.940333+00:00", "meta": {"OBJECT_NAME": "COSMOS 2251 DEB", "OBJECT_ID": "1993-036WB", "EPOCH": "2025-12-11T10:58:28.736256", "MEAN_MOTION": 13.86050666, "ECCENTRICITY": 0.02518691, "INCLINATION": 73.9261, "RA_OF_ASC_NODE": 58.2179, "ARG_OF_PERICENTER": 1.804, "MEAN_ANOMALY": 13.5809, "EPHEMERIS_TYPE": 0, "CLASSIFICATION_TYPE": "U", "NORAD_CAT_ID": 34589, "ELEMENT_SET_NO": 999, "REV_AT_EPOCH": 84694, "BSTAR": 0.0003647707, "MEAN_MOTION_DOT": 5.14e-06, "MEAN_MOTION_DDOT": 0}, "tle": {"line1": "1 34589U 93036WB  25345.45727704  .00000514  00000+0  36477-3 0  9994", "line2": "2 34589  73.9261  58.2179 0251869   1.8040  13.5809 13.86050666846943"}}, "geometry": {"type": "Point", "coordinates": [-100.04596149018269, -54.95415321254163]}}, {"type": "Feature", "properties": {"norad_id": 34590, "name": "COSMOS 2251 DEB", "group": "cosmos-2251-debris", "lat": -72.8414272777512, "lon": -105.75631259036473, "alt_km": 764.8903291700535, "timestamp": "2025-12-12T22:42:12.940343+00:00", "meta": {"OBJECT_NAME": "COSMOS 2251 DEB", "OBJECT_ID": "1993-036WC", "EPOCH": "2025-12-11T16:32:23.481888", "MEAN_MOTION": 14.5482391, "ECCENTRICITY": 0.00679433, "INCLINATION": 74.0436, "RA_OF_ASC_NODE": 324.5378, "ARG_OF_PERICENTER": 94.4565, "MEAN_ANOMALY": 82.2393, "EPHEMERIS_TYPE": 0, "CLASSIFICATION_TYPE": "U", "NORAD_CAT_ID": 34590, "ELEMENT_SET_NO": 999, "REV_AT_EPOCH": 89105, "BSTAR": 0.00020724911, "MEAN_MOTION_DOT": 8.87e-06, "MEAN_MOTION_DDOT": 0}, "tle": {"line1": "1 34590U 93036WC  25345.68916067  .00000887  00000+0  20725-3 0  9995", "line2": "2 34590  74.0436 324.5378 0067943  94.4565  82.2393 14.54823910891058"}}, "geometry": {"type": "Point", "coordinates": [-105.75631259036473, -72.8414272777512]}}]}